[{"OBJECT_NAME":"ONEWEB-0320","OBJECT_ID":"2021-083E","EPOCH":"2025-08-11T04:38:34.564704","MEAN_MOTION":13.18686844,"ECCENTRICITY":0.0001826,"INCLINATION":87.9135,"RA_OF_ASC_NODE":37.0387,"ARG_OF_PERICENTER":92.5704,"MEAN_ANOMALY":267.5638,"EPHEMERIS_TYPE":0,"CLASSIFICATION_TYPE":"U","NORAD_CAT_ID":49190,"ELEMENT_SET_NO":999,"REV_AT_EPOCH":18912,"BSTAR":-9.42e-5,"MEAN_MOTION_DOT":-2.4e-7,"MEAN_MOTION_DDOT":0},{"OBJECT_NAME":"ONEWEB-0321","OBJECT_ID":"2021-083F","EPOCH":"2025-08-10T19:48:30.220992","MEAN_MOTION":13.207722,"ECCENTRICITY":0.0001807,"INCLINATION":87.9289,"RA_OF_ASC_NODE":336.2782,"ARG_OF_PERICENTER":89.6115,"MEAN_ANOMALY":270.5225,"EPHEMERIS_TYPE":0,"CLASSIFICATION_TYPE":"U","NORAD_CAT_ID":49191,"ELEMENT_SET_NO":999,"REV_AT_EPOCH":19586,"BSTAR":-9.5905e-5,"MEAN_MOTION_DOT":-2.6e-7,"MEAN_MOTION_DDOT":0},{"OBJECT_NAME":"ONEWEB-0322","OBJECT_ID":"2021-083G","EPOCH":"2025-08-11T04:31:50.873664","MEAN_MOTION":13.13469743,"ECCENTRICITY":0.000172,"INCLINATION":87.8981,"RA_OF_ASC_NODE":21.8425,"ARG_OF_PERICENTER":81.0502,"MEAN_ANOMALY":279.0822,"EPHEMERIS_TYPE":0,"CLASSIFICATION_TYPE":"U","NORAD_CAT_ID":49192,"ELEMENT_SET_NO":999,"REV_AT_EPOCH":19022,"BSTAR":0.00043779,"MEAN_MOTION_DOT":1.73e-6,"MEAN_MOTION_DDOT":0},{"OBJECT_NAME":"ONEWEB-0324","OBJECT_ID":"2021-083H","EPOCH":"2025-08-11T04:19:34.727520","MEAN_MOTION":13.18687572,"ECCENTRICITY":0.0001649,"INCLINATION":87.9133,"RA_OF_ASC_NODE":37.0207,"ARG_OF_PERICENTER":92.4244,"MEAN_ANOMALY":267.7077,"EPHEMERIS_TYPE":0,"CLASSIFICATION_TYPE":"U","NORAD_CAT_ID":49193,"ELEMENT_SET_NO":999,"REV_AT_EPOCH":18914,"BSTAR":-7.4083e-5,"MEAN_MOTION_DOT":-1.6e-7,"MEAN_MOTION_DDOT":0},{"OBJECT_NAME":"ONEWEB-0325","OBJECT_ID":"2021-083J","EPOCH":"2025-08-11T04:24:19.896768","MEAN_MOTION":13.1868654,"ECCENTRICITY":0.0001847,"INCLINATION":87.9133,"RA_OF_ASC_NODE":37.0372,"ARG_OF_PERICENTER":88.7936,"MEAN_ANOMALY":271.3407,"EPHEMERIS_TYPE":0,"CLASSIFICATION_TYPE":"U","NORAD_CAT_ID":49194,"ELEMENT_SET_NO":999,"REV_AT_EPOCH":18915,"BSTAR":1.3911e-5,"MEAN_MOTION_DOT":1.8e-7,"MEAN_MOTION_DDOT":0},{"OBJECT_NAME":"ONEWEB-0326","OBJECT_ID":"2021-083K","EPOCH":"2025-08-11T04:45:54.235296","MEAN_MOTION":13.18685748,"ECCENTRICITY":0.0002039,"INCLINATION":87.913,"RA_OF_ASC_NODE":37.0232,"ARG_OF_PERICENTER":101.3106,"MEAN_ANOMALY":258.8255,"EPHEMERIS_TYPE":0,"CLASSIFICATION_TYPE":"U","NORAD_CAT_ID":49195,"ELEMENT_SET_NO":999,"REV_AT_EPOCH":18914,"BSTAR":-1.4874e-5,"MEAN_MOTION_DOT":7.0e-8,"MEAN_MOTION_DDOT":0},{"OBJECT_NAME":"ONEWEB-0327","OBJECT_ID":"2021-083L","EPOCH":"2025-08-11T04:45:30.308544","MEAN_MOTION":13.18687024,"ECCENTRICITY":0.0002056,"INCLINATION":87.9127,"RA_OF_ASC_NODE":37.0513,"ARG_OF_PERICENTER":98.7777,"MEAN_ANOMALY":261.3588,"EPHEMERIS_TYPE":0,"CLASSIFICATION_TYPE":"U","NORAD_CAT_ID":49196,"ELEMENT_SET_NO":999,"REV_AT_EPOCH":18916,"BSTAR":-1.0902e-5,"MEAN_MOTION_DOT":9.0e-8,"MEAN_MOTION_DDOT":0},{"OBJECT_NAME":"ONEWEB-0328","OBJECT_ID":"2021-083M","EPOCH":"2025-08-10T22:48:07.209216","MEAN_MOTION":13.13469825,"ECCENTRICITY":0.0001709,"INCLINATION":87.8978,"RA_OF_ASC_NODE":21.829,"ARG_OF_PERICENTER":95.7556,"MEAN_ANOMALY":264.3768,"EPHEMERIS_TYPE":0,"CLASSIFICATION_TYPE":"U","NORAD_CAT_ID":49197,"ELEMENT_SET_NO":999,"REV_AT_EPOCH":19017,"BSTAR":0.00012956,"MEAN_MOTION_DOT":6.0e-7,"MEAN_MOTION_DDOT":0},{"OBJECT_NAME":"ONEWEB-0331","OBJECT_ID":"2021-083N","EPOCH":"2025-08-11T04:36:12.587040","MEAN_MOTION":13.18685416,"ECCENTRICITY":0.0001817,"INCLINATION":87.9132,"RA_OF_ASC_NODE":37.0169,"ARG_OF_PERICENTER":103.5225,"MEAN_ANOMALY":256.6109,"EPHEMERIS_TYPE":0,"CLASSIFICATION_TYPE":"U","NORAD_CAT_ID":49198,"ELEMENT_SET_NO":999,"REV_AT_EPOCH":18915,"BSTAR":-0.0001582,"MEAN_MOTION_DOT":-4.9e-7,"MEAN_MOTION_DDOT":0},{"OBJECT_NAME":"ONEWEB-0333","OBJECT_ID":"2021-083P","EPOCH":"2025-08-11T05:59:35.234304","MEAN_MOTION":13.13470113,"ECCENTRICITY":0.0001834,"INCLINATION":87.8968,"RA_OF_ASC_NODE":21.8402,"ARG_OF_PERICENTER":92.6075,"MEAN_ANOMALY":267.5264,"EPHEMERIS_TYPE":0,"CLASSIFICATION_TYPE":"U","NORAD_CAT_ID":49199,"ELEMENT_SET_NO":999,"REV_AT_EPOCH":19022,"BSTAR":-0.00057687,"MEAN_MOTION_DOT":-1.98e-6,"MEAN_MOTION_DDOT":0},{"OBJECT_NAME":"ONEWEB-0334","OBJECT_ID":"2021-083Q","EPOCH":"2025-08-10T20:13:30.480096","MEAN_MOTION":13.20772637,"ECCENTRICITY":0.000232,"INCLINATION":87.9289,"RA_OF_ASC_NODE":336.3081,"ARG_OF_PERICENTER":73.1869,"MEAN_ANOMALY":286.9518,"EPHEMERIS_TYPE":0,"CLASSIFICATION_TYPE":"U","NORAD_CAT_ID":49200,"ELEMENT_SET_NO":999,"REV_AT_EPOCH":19582,"BSTAR":-9.7849e-5,"MEAN_MOTION_DOT":-2.7e-7,"MEAN_MOTION_DDOT":0},{"OBJECT_NAME":"ONEWEB-0335","OBJECT_ID":"2021-083R","EPOCH":"2025-08-11T04:02:34.425600","MEAN_MOTION":13.13470193,"ECCENTRICITY":0.0001845,"INCLINATION":87.8969,"RA_OF_ASC_NODE":21.8432,"ARG_OF_PERICENTER":99.8933,"MEAN_ANOMALY":260.2404,"EPHEMERIS_TYPE":0,"CLASSIFICATION_TYPE":"U","NORAD_CAT_ID":49201,"ELEMENT_SET_NO":999,"REV_AT_EPOCH":19022,"BSTAR":-0.00086377,"MEAN_MOTION_DOT":-3.03e-6,"MEAN_MOTION_DDOT":0},{"OBJECT_NAME":"ONEWEB-0336","OBJECT_ID":"2021-083S","EPOCH":"2025-08-11T03:21:08.062560","MEAN_MOTION":13.13469648,"ECCENTRICITY":0.0001911,"INCLINATION":87.897,"RA_OF_ASC_NODE":21.8424,"ARG_OF_PERICENTER":94.087,"MEAN_ANOMALY":266.0478,"EPHEMERIS_TYPE":0,"CLASSIFICATION_TYPE":"U","NORAD_CAT_ID":49202,"ELEMENT_SET_NO":999,"REV_AT_EPOCH":19021,"BSTAR":0.00040809,"MEAN_MOTION_DOT":1.62e-6,"MEAN_MOTION_DDOT":0},{"OBJECT_NAME":"ONEWEB-0337","OBJECT_ID":"2021-083T","EPOCH":"2025-08-11T03:35:33.254016","MEAN_MOTION":13.13466522,"ECCENTRICITY":0.0001623,"INCLINATION":87.8983,"RA_OF_ASC_NODE":21.8412,"ARG_OF_PERICENTER":98.7837,"MEAN_ANOMALY":261.3476,"EPHEMERIS_TYPE":0,"CLASSIFICATION_TYPE":"U","NORAD_CAT_ID":49203,"ELEMENT_SET_NO":999,"REV_AT_EPOCH":19021,"BSTAR":-0.00056496,"MEAN_MOTION_DOT":-1.94e-6,"MEAN_MOTION_DDOT":0},{"OBJECT_NAME":"ONEWEB-0338","OBJECT_ID":"2021-083U","EPOCH":"2025-08-11T06:31:42.645504","MEAN_MOTION":13.20772166,"ECCENTRICITY":0.0001943,"INCLINATION":87.9297,"RA_OF_ASC_NODE":336.218,"ARG_OF_PERICENTER":89.335,"MEAN_ANOMALY":270.8006,"EPHEMERIS_TYPE":0,"CLASSIFICATION_TYPE":"U","NORAD_CAT_ID":49204,"ELEMENT_SET_NO":999,"REV_AT_EPOCH":19590,"BSTAR":0.00032836,"MEAN_MOTION_DOT":1.46e-6,"MEAN_MOTION_DDOT":0},{"OBJECT_NAME":"ONEWEB-0339","OBJECT_ID":"2021-083V","EPOCH":"2025-08-11T03:47:57.135552","MEAN_MOTION":13.13469955,"ECCENTRICITY":0.0001683,"INCLINATION":87.8979,"RA_OF_ASC_NODE":21.8249,"ARG_OF_PERICENTER":91.5821,"MEAN_ANOMALY":268.5501,"EPHEMERIS_TYPE":0,"CLASSIFICATION_TYPE":"U","NORAD_CAT_ID":49205,"ELEMENT_SET_NO":999,"REV_AT_EPOCH":19019,"BSTAR":-0.00086239,"MEAN_MOTION_DOT":-3.02e-6,"MEAN_MOTION_DDOT":0},{"OBJECT_NAME":"ONEWEB-0340","OBJECT_ID":"2021-083W","EPOCH":"2025-08-10T22:49:25.826304","MEAN_MOTION":13.18686091,"ECCENTRICITY":0.0001812,"INCLINATION":87.9131,"RA_OF_ASC_NODE":37.0687,"ARG_OF_PERICENTER":93.3929,"MEAN_ANOMALY":266.7411,"EPHEMERIS_TYPE":0,"CLASSIFICATION_TYPE":"U","NORAD_CAT_ID":49206,"ELEMENT_SET_NO":999,"REV_AT_EPOCH":18908,"BSTAR":0.00010313,"MEAN_MOTION_DOT":5.4e-7,"MEAN_MOTION_DDOT":0},{"OBJECT_NAME":"ONEWEB-0341","OBJECT_ID":"2021-083X","EPOCH":"2025-08-11T04:26:41.719776","MEAN_MOTION":13.1868558,"ECCENTRICITY":0.0001254,"INCLINATION":87.9135,"RA_OF_ASC_NODE":37.0333,"ARG_OF_PERICENTER":95.689,"MEAN_ANOMALY":264.4385,"EPHEMERIS_TYPE":0,"CLASSIFICATION_TYPE":"U","NORAD_CAT_ID":49207,"ELEMENT_SET_NO":999,"REV_AT_EPOCH":18913,"BSTAR":5.0438e-5,"MEAN_MOTION_DOT":3.3e-7,"MEAN_MOTION_DDOT":0},{"OBJECT_NAME":"ONEWEB-0342","OBJECT_ID":"2021-083Y","EPOCH":"2025-08-11T06:40:47.332704","MEAN_MOTION":13.20773068,"ECCENTRICITY":0.0001915,"INCLINATION":87.9288,"RA_OF_ASC_NODE":336.1898,"ARG_OF_PERICENTER":95.358,"MEAN_ANOMALY":264.7772,"EPHEMERIS_TYPE":0,"CLASSIFICATION_TYPE":"U","NORAD_CAT_ID":49208,"ELEMENT_SET_NO":999,"REV_AT_EPOCH":19587,"BSTAR":0.00028492,"MEAN_MOTION_DOT":1.29e-6,"MEAN_MOTION_DDOT":0},{"OBJECT_NAME":"ONEWEB-0343","OBJECT_ID":"2021-083Z","EPOCH":"2025-08-11T04:20:45.038976","MEAN_MOTION":13.18686927,"ECCENTRICITY":0.0001245,"INCLINATION":87.9124,"RA_OF_ASC_NODE":37.0205,"ARG_OF_PERICENTER":78.9466,"MEAN_ANOMALY":281.1806,"EPHEMERIS_TYPE":0,"CLASSIFICATION_TYPE":"U","NORAD_CAT_ID":49209,"ELEMENT_SET_NO":999,"REV_AT_EPOCH":18918,"BSTAR":-0.00051282,"MEAN_MOTION_DOT":-1.89e-6,"MEAN_MOTION_DDOT":0},{"OBJECT_NAME":"ONEWEB-0344","OBJECT_ID":"2021-083AA","EPOCH":"2025-08-11T03:40:37.610112","MEAN_MOTION":13.13470306,"ECCENTRICITY":0.0001381,"INCLINATION":87.8975,"RA_OF_ASC_NODE":21.8657,"ARG_OF_PERICENTER":101.0143,"MEAN_ANOMALY":259.1142,"EPHEMERIS_TYPE":0,"CLASSIFICATION_TYPE":"U","NORAD_CAT_ID":49210,"ELEMENT_SET_NO":999,"REV_AT_EPOCH":19019,"BSTAR":-0.00050578,"MEAN_MOTION_DOT":-1.72e-6,"MEAN_MOTION_DDOT":0},{"OBJECT_NAME":"ONEWEB-0345","OBJECT_ID":"2021-083AB","EPOCH":"2025-08-11T03:28:27.373728","MEAN_MOTION":13.13468963,"ECCENTRICITY":0.0001331,"INCLINATION":87.8979,"RA_OF_ASC_NODE":21.8197,"ARG_OF_PERICENTER":102.0116,"MEAN_ANOMALY":258.1162,"EPHEMERIS_TYPE":0,"CLASSIFICATION_TYPE":"U","NORAD_CAT_ID":49211,"ELEMENT_SET_NO":999,"REV_AT_EPOCH":19020,"BSTAR":-0.00017788,"MEAN_MOTION_DOT":-5.2e-7,"MEAN_MOTION_DDOT":0},{"OBJECT_NAME":"ONEWEB-0346","OBJECT_ID":"2021-083AC","EPOCH":"2025-08-11T04:33:49.508640","MEAN_MOTION":13.1868759,"ECCENTRICITY":0.0002191,"INCLINATION":87.9132,"RA_OF_ASC_NODE":37.0409,"ARG_OF_PERICENTER":105.8402,"MEAN_ANOMALY":254.2972,"EPHEMERIS_TYPE":0,"CLASSIFICATION_TYPE":"U","NORAD_CAT_ID":49212,"ELEMENT_SET_NO":999,"REV_AT_EPOCH":18912,"BSTAR":0.00015867,"MEAN_MOTION_DOT":7.5e-7,"MEAN_MOTION_DDOT":0},{"OBJECT_NAME":"ONEWEB-0348","OBJECT_ID":"2021-083AD","EPOCH":"2025-08-11T02:48:57.246336","MEAN_MOTION":13.20773714,"ECCENTRICITY":0.0001837,"INCLINATION":87.9295,"RA_OF_ASC_NODE":336.2331,"ARG_OF_PERICENTER":118.4766,"MEAN_ANOMALY":241.6553,"EPHEMERIS_TYPE":0,"CLASSIFICATION_TYPE":"U","NORAD_CAT_ID":49213,"ELEMENT_SET_NO":999,"REV_AT_EPOCH":19588,"BSTAR":0.00020381,"MEAN_MOTION_DOT":9.6e-7,"MEAN_MOTION_DDOT":0}]
